DMSP 5D-3 F16 (USA 172) 
1 28054U 03048A   26055.26755161  .00000136  00000+0  94568-4 0  9990
2 28054  99.0005  78.2929 0008202 105.9583 310.9842 14.14456184153525
METEOSAT-9 (MSG-2)      
1 28912U 05049B   26055.10746321  .00000122  00000+0  00000+0 0  9995
2 28912   9.1048  55.2610 0002174 212.2248 330.8192  1.00272899  5863
DMSP 5D-3 F17 (USA 191) 
1 29522U 06050A   26055.24255893  .00000162  00000+0  10590-3 0  9993
2 29522  98.7412  64.1115 0010498  24.8056 335.3621 14.14957051996440
FENGYUN 3A              
1 32958U 08026A   26055.27261817  .00000100  00000+0  68029-4 0  9994
2 32958  98.6780 358.2842 0009834  92.7385 267.4917 14.19541650919389
GOES 14                 
1 35491U 09033A   26055.13935668  .00000132  00000+0  00000+0 0  9990
2 35491   1.3962  84.5441 0001893 286.1603  39.7548  1.00119906  5455
DMSP 5D-3 F18 (USA 210) 
1 35951U 09057A   26055.20497970  .00000261  00000+0  15819-3 0  9995
2 35951  98.8941  36.2816 0010424 207.5553 152.5069 14.14825923843617
EWS-G2 (GOES 15)        
1 36411U 10008A   26055.03983314  .00000002  00000+0  00000+0 0  9993
2 36411   0.9878  85.3377 0001354  33.8469 112.4339  1.00363690 58507
COMS 1                  
1 36744U 10032A   26054.90994899 -.00000346  00000+0  00000+0 0  9996
2 36744   4.5135  77.0019 0001018 254.6774 277.8509  1.00270471 49950
FENGYUN 3B              
1 37214U 10059A   26055.29540719 -.00000102  00000+0 -29234-4 0  9995
2 37214  98.9790 100.7516 0022685 144.6606 281.9520 14.14813021791460
SUOMI NPP               
1 37849U 11061A   26055.28062102  .00000106  00000+0  71297-4 0  9995
2 37849  98.7853 356.9911 0000738 337.3780  22.7363 14.19539328742423
METEOSAT-10 (MSG-3)     
1 38552U 12035B   26055.16986347 -.00000007  00000+0  00000+0 0  9992
2 38552   4.4030  61.4931 0002343 284.9172 228.9272  1.00275251 49722
METOP-B                 
1 38771U 12049A   26055.28193103  .00000106  00000+0  68363-4 0  9993
2 38771  98.6673 108.9535 0001488 334.3171  25.7933 14.21439738697228
INSAT-3D                
1 39216U 13038B   26055.23308505 -.00000341  00000+0  00000+0 0  9997
2 39216   1.6331  84.0312 0002256 227.6047  55.8587  1.00271986 45942
FENGYUN 3C              
1 39260U 13052A   26055.24759898  .00000118  00000+0  80949-4 0  9994
2 39260  98.4871  34.3782 0014550 353.1986   6.8989 14.15723735642589
METEOR-M 2              
1 40069U 14037A   26055.23853407  .00000049  00000+0  41589-4 0  9997
2 40069  98.5008  35.0470 0006214  15.9961 344.1412 14.21422190603277
HIMAWARI-8              
1 40267U 14060A   26055.19768346 -.00000277  00000+0  00000+0 0  9997
2 40267   0.0100 143.9189 0001111 143.8283  78.1431  1.00271880 41624
FENGYUN 2G              
1 40367U 14090A   26055.04688294 -.00000304  00000+0  00000+0 0  9999
2 40367   5.3505  74.1931 0002181 152.3901  43.7552  1.00277828 40867
METEOSAT-11 (MSG-4)     
1 40732U 15034A   26055.17168348  .00000062  00000+0  00000+0 0  9991
2 40732   2.9170  71.7341 0001147 262.8326 250.8631  1.00273717  6089
ELEKTRO-L 2             
1 41105U 15074A   26054.88165954 -.00000119  00000+0  00000+0 0  9991
2 41105   6.4069  71.9213 0003453 231.9607 152.7885  1.00271017 37379
INSAT-3DR               
1 41752U 16054A   26055.17177929 -.00000078  00000+0  00000+0 0  9990
2 41752   0.0994  91.1874 0013649 188.4686  10.1954  1.00271024 34685
HIMAWARI-9              
1 41836U 16064A   26054.98370266 -.00000276  00000+0  00000+0 0  9991
2 41836   0.0142 140.9442 0001228 210.6505 297.1338  1.00269164 34073
GOES 16                 
1 41866U 16071A   26055.19697551 -.00000092  00000+0  00000+0 0  9991
2 41866   0.1510  91.4824 0002796 207.3931 181.4021  1.00271240 33977
FENGYUN 4A              
1 41882U 16077A   26054.90899565 -.00000358  00000+0  00000+0 0  9997
2 41882   2.0319  81.5435 0006423 132.9829  30.1695  1.00265940 33798
CYGFM05                 
1 41884U 16078A   26055.06174519  .00021451  00000+0  35240-3 0  9997
2 41884  34.9581 286.8682 0005893 161.2322 198.8618 15.51416946511144
CYGFM04                 
1 41885U 16078B   26055.26848355  .00027750  00000+0  40864-3 0  9992
2 41885  34.9323 258.0471 0005539 198.6455 161.4066 15.54396681511378
CYGFM02                 
1 41886U 16078C   26055.25174757  .00028690  00000+0  39211-3 0  9998
2 41886  34.9410 255.3274 0006429 198.1139 161.9357 15.56403853511516
CYGFM01                 
1 41887U 16078D   26055.02838757  .00021950  00000+0  35526-3 0  9998
2 41887  34.9410 288.9493 0005573 150.5518 209.5519 15.51829175511089
CYGFM08                 
1 41888U 16078E   26055.02146169  .00023710  00000+0  36376-3 0  9998
2 41888  34.9436 271.0445 0007269 178.9795 181.0944 15.53284037511320
CYGFM07                 
1 41890U 16078G   26055.25101694  .00025365  00000+0  37957-3 0  9994
2 41890  34.9450 258.0660 0006077 204.2732 155.7706 15.53967770511385
CYGFM03                 
1 41891U 16078H   26054.96472979  .00024203  00000+0  36426-3 0  9999
2 41891  34.9405 261.9299 0005090 184.6662 175.4014 15.53823718511311
FENGYUN 3D              
1 43010U 17072A   26055.24568874  .00000370  00000+0  19680-3 0  9993
2 43010  99.0010  27.7016 0002141  38.1900 321.9427 14.19711680428966
NOAA 20 (JPSS-1)        
1 43013U 17073A   26055.29522047  .00000090  00000+0  63565-4 0  9995
2 43013  98.7676 355.8169 0000567 153.0115 207.1091 14.19532203428450
GOES 17                 
1 43226U 18022A   26055.29907827 -.00000184  00000+0  00000+0 0  9994
2 43226   0.6459  87.7366 0002525 212.2217 232.3961  1.00270802 29299
FENGYUN 2H              
1 43491U 18050A   26055.11413657 -.00000129  00000+0  00000+0 0  9992
2 43491   2.7370  80.4689 0002103 171.3039  22.3324  1.00272975 28309
METOP-C                 
1 43689U 18087A   26055.23641695  .00000106  00000+0  68335-4 0  9993
2 43689  98.6796 116.8356 0002064 119.1494 240.9890 14.21492062378784
GEO-KOMPSAT-2A          
1 43823U 18100A   26054.90994899 -.00000344  00000+0  00000+0 0  9994
2 43823   0.0164  42.6213 0001021 352.5976 214.3943  1.00271840 26492
METEOR-M2 2             
1 44387U 19038A   26055.21722073  .00000378  00000+0  18354-3 0  9990
2 44387  98.9072  40.8852 0001557  27.2612 332.8648 14.24328654345216
ARKTIKA-M 1             
1 47719U 21016A   26053.84774794 -.00000141  00000+0  00000+0 0  9999
2 47719  63.1993  73.9988 7239159 269.4113  15.2414  2.00621828 36495
FENGYUN 3E              
1 49008U 21062A   26055.31323045 -.00000165  00000+0 -57057-4 0  9992
2 49008  98.7512  59.9772 0002650  65.4959 294.6494 14.19891262240563
GOES 18                 
1 51850U 22021A   26055.14265002  .00000096  00000+0  00000+0 0  9997
2 51850   0.0175  78.0304 0000451 285.2996  65.0240  1.00270948  5459
NOAA 21 (JPSS-2)        
1 54234U 22150A   26055.25959079  .00000079  00000+0  58385-4 0  9990
2 54234  98.7538 355.6807 0002255 131.0417 229.0955 14.19548151170521
METEOSAT-12 (MTG-I1)    
1 54743U 22170C   26055.16969014 -.00000009  00000+0  00000+0 0  9997
2 54743   0.7341  27.8365 0002053 273.6173 273.3334  1.00272860 11845
TIANMU-1 03             
1 55973U 23039A   26055.26869334  .00017305  00000+0  38590-3 0  9998
2 55973  97.5165 225.1402 0003773 140.2037 219.9488 15.43637811163399
TIANMU-1 04             
1 55974U 23039B   26055.29566940  .00017382  00000+0  38242-3 0  9998
2 55974  97.5098 224.3321 0004479 136.9416 223.2183 15.44035893163408
TIANMU-1 05             
1 55975U 23039C   26055.24476441  .00017021  00000+0  38039-3 0  9994
2 55975  97.5146 224.7719 0003377 158.2734 201.8657 15.43579563163374
TIANMU-1 06             
1 55976U 23039D   26055.29573663  .00017349  00000+0  38133-3 0  9992
2 55976  97.5155 225.3525 0003782 153.8396 206.3043 15.44067816163409
FENGYUN 3G              
1 56232U 23055A   26055.00263645  .00029282  00000+0  45464-3 0  9995
2 56232  49.9924 209.6634 0010515 312.7216  47.2866 15.53618235162417
METEOR-M2 3             
1 57166U 23091A   26055.25687980 -.00000010  00000+0  14584-4 0  9990
2 57166  98.6245 112.4696 0004844 130.0892 230.0713 14.24036082138449
TIANMU-1 07             
1 57399U 23101A   26055.23553310  .00007797  00000+0  27736-3 0  9997
2 57399  97.2756 108.4815 0004627 160.2767 199.8653 15.29234458144380
TIANMU-1 08             
1 57400U 23101B   26055.27090762  .00007222  00000+0  25712-3 0  9996
2 57400  97.2744 108.2961 0006199 161.7852 198.3612 15.29226318144382
TIANMU-1 09             
1 57401U 23101C   26055.25243223  .00007597  00000+0  26907-3 0  9999
2 57401  97.2702 107.7614 0005537 162.4055 197.7378 15.29385029144381
TIANMU-1 10             
1 57402U 23101D   26055.22151966  .00008184  00000+0  28959-3 0  9991
2 57402  97.2781 108.6589 0007172 166.9173 193.2255 15.29379550144373
FENGYUN 3F              
1 57490U 23111A   26055.22891340  .00000061  00000+0  49454-4 0  9996
2 57490  98.6956 127.2949 0001437  87.2617 272.8724 14.19915911132830
ARKTIKA-M 2             
1 58584U 23198A   26054.10731457  .00000190  00000+0  00000+0 0  9996
2 58584  63.2206 166.9971 6875515 267.8148  18.8510  2.00613706 16031
TIANMU-1 11             
1 58645U 23205A   26055.23049396  .00006187  00000+0  24548-3 0  9991
2 58645  97.3566  78.6013 0010456  51.8100 308.4079 15.25672112120299
TIANMU-1 12             
1 58646U 23205B   26055.26223814  .00006786  00000+0  26972-3 0  9992
2 58646  97.3555  78.4150 0008336  38.9839 321.1999 15.25592490120289
TIANMU-1 13             
1 58647U 23205C   26055.22798274  .00006588  00000+0  26158-3 0  9992
2 58647  97.3581  78.6142 0008047  22.2460 337.9126 15.25640198120272
TIANMU-1 14             
1 58648U 23205D   26055.21235106  .00006780  00000+0  26924-3 0  9997
2 58648  97.3516  77.8800 0008976  24.9433 335.2237 15.25617232120270
TIANMU-1 19             
1 58660U 23208A   26055.31965606  .00010122  00000+0  35625-3 0  9993
2 58660  97.4374 171.2967 0004903  10.6536 349.4807 15.29513202120065
TIANMU-1 20             
1 58661U 23208B   26055.31435418  .00009674  00000+0  32825-3 0  9996
2 58661  97.4313 171.8117 0007230  15.7597 344.3868 15.30703606120142
TIANMU-1 21             
1 58662U 23208C   26055.26488722  .00011538  00000+0  36793-3 0  9997
2 58662  97.4366 173.9864 0006947   9.9597 350.1781 15.32661400120250
TIANMU-1 22             
1 58663U 23208D   26055.26861306  .00009560  00000+0  34043-3 0  9999
2 58663  97.4370 171.2655 0004198  38.7247 321.4293 15.29150065120067
TIANMU-1 15             
1 58700U 24004A   26055.27567194  .00006684  00000+0  26570-3 0  9995
2 58700  97.4667 241.5339 0007733  35.3904 324.7846 15.25608380118554
TIANMU-1 16             
1 58701U 24004B   26055.25944396  .00007269  00000+0  28847-3 0  9996
2 58701  97.4608 240.8507 0006228  40.1921 319.9776 15.25640520118550
TIANMU-1 17             
1 58702U 24004C   26055.30768126  .00006797  00000+0  26965-3 0  9992
2 58702  97.4641 241.3460 0005457  42.6786 317.4875 15.25678763118554
TIANMU-1 18             
1 58703U 24004D   26055.29241514  .00006402  00000+0  25454-3 0  9993
2 58703  97.4658 241.5401 0004854  43.4942 316.6678 15.25632202118553
INSAT-3DS               
1 58990U 24033A   26054.82948596 -.00000156  00000+0  00000+0 0  9992
2 58990   0.0755 266.3699 0002121  76.5506 191.4918  1.00273399 45934
METEOR-M2 4             
1 59051U 24039A   26055.28402184  .00000039  00000+0  36999-4 0  9996
2 59051  98.6881  16.0827 0007822 130.3689 229.8173 14.22414772103218
GOES 19                 
1 60133U 24119A   26055.18030831 -.00000249  00000+0  00000+0 0  9996
2 60133   0.0133 272.2044 0000904  92.2210 139.3344  1.00271467  5833
FENGYUN 3H              
1 65815U 25219A   26055.29574220  .00000098  00000+0  66656-4 0  9992
2 65815  98.6667 358.3217 0001521  71.0157 289.1184 14.19928634 21360
